NORAD_CAT_ID,OBJECT_NAME,OBJECT_TYPE,EPOCH,MEAN_MOTION,ECCENTRICITY,INCLINATION,RA_OF_ASC_NODE,ARG_OF_PERICENTER,MEAN_ANOMALY,BSTAR,MEAN_MOTION_DOT,MEAN_MOTION_DDOT,TLE_LINE0,TLE_LINE1,TLE_LINE2,SEMIMAJOR_AXIS,PERIOD,APOGEE,PERIGEE,DECAYED
50200.0,STARLINK-3235,PAYLOAD,2023-11-22 11:37:25,15.08853947,0.0001865,53.2198,41.9812,65.865,294.2537,9.5312e-05,1.23e-05,0.0,0 STARLINK-3235,1 50200U 21125AW  23326.48432821  .00001230  00000-0  95312-4 0  9996,2 50200  53.2198  41.9812 0001865  65.8650 294.2537 15.08853947109712,6917.838,95.437,540.993,538.413,0.0
50200.0,STARLINK-3235,PAYLOAD,2023-11-23 11:28:13,15.08846785,0.0001388,53.2179,37.5225,90.4652,269.6499,0.00013502,1.862e-05,0.0,0 STARLINK-3235,1 50200U 21125AW  23327.47793115  .00001862  00000-0  13502-3 0  9993,2 50200  53.2179  37.5225 0001388  90.4652 269.6499 15.08846785109867,6917.86,95.437,540.685,538.764,0.0
50200.0,STARLINK-3235,PAYLOAD,2023-11-23 14:38:59,15.08849473,0.0001404,53.2177,36.9261,96.0763,264.039,0.00016108,2.277e-05,0.0,0 STARLINK-3235,1 50200U 21125AW  23327.61040890  .00002277  00000-0  16108-3 0  9990,2 50200  53.2177  36.9261 0001404  96.0763 264.0390 15.08849473110376,6917.851,95.437,540.688,538.745,0.0
50200.0,STARLINK-3235,PAYLOAD,2023-11-24 11:19:01,15.0883116,0.0001831,53.2187,33.0608,81.8117,278.3083,-6.1803e-05,-1.271e-05,0.0,0 STARLINK-3235,1 50200U 21125AW  23328.47154360 -.00001271  00000-0 -61803-4 0  9991,2 50200  53.2187  33.0608 0001831  81.8117 278.3083 15.08831160110022,6917.907,95.438,541.039,538.506,0.0
50200.0,STARLINK-3235,PAYLOAD,2023-11-25 11:09:48,15.08860347,0.0001648,53.2187,28.6026,91.4684,268.6497,0.00082572,0.00012885,0.0,0 STARLINK-3235,1 50200U 21125AW  23329.46513897  .00012885  00000-0  82572-3 0  9991,2 50200  53.2187  28.6026 0001648  91.4684 268.6497 15.08860347110657,6917.818,95.436,540.823,538.543,0.0
50200.0,STARLINK-3235,PAYLOAD,2023-11-26 09:25:09,15.08951272,0.0001089,53.2187,24.4391,77.0064,283.105,0.0037784,0.00060546,0.0,0 STARLINK-3235,1 50200U 21125AW  23330.39247164  .00060546  00000-0  37784-2 0  9997,2 50200  53.2187  24.4391 0001089  77.0064 283.1050 15.08951272110304,6917.54,95.431,540.159,538.652,0.0
50200.0,STARLINK-3235,PAYLOAD,2023-11-27 10:51:23,15.08793469,0.0001956,53.2183,19.6825,64.4232,295.6963,-0.00054465,-8.935e-05,0.0,0 STARLINK-3235,1 50200U 21125AW  23331.45235298 -.00008935  00000-0 -54465-3 0  9992,2 50200  53.2183  19.6825 0001956  64.4232 295.6963 15.08793469110479,6918.023,95.44,541.241,538.534,0.0
50200.0,STARLINK-3235,PAYLOAD,2023-11-28 10:42:11,15.0885322,0.0001825,53.2174,15.2227,74.043,286.0763,0.0019085,0.00030228,0.0,0 STARLINK-3235,1 50200U 21125AW  23332.44596435  .00030228  00000-0  19085-2 0  9991,2 50200  53.2174  15.2227 0001825  74.0430 286.0763 15.08853220110620,6917.84,95.437,540.967,538.442,0.0
50200.0,STARLINK-3235,PAYLOAD,2023-11-29 02:36:01,15.08865507,0.0002051,53.2179,12.2515,72.1671,287.9545,0.00062346,9.655e-05,0.0,0 STARLINK-3235,1 50200U 21125AW  23333.10835646  .00009655  00000-0  62346-3 0  9994,2 50200  53.2179  12.2515 0002051  72.1671 287.9545 15.08865507110720,6917.802,95.436,541.086,538.249,0.0
50200.0,STARLINK-3235,PAYLOAD,2023-11-29 08:57:34,15.08867035,0.0002175,53.2177,11.0599,63.737,296.3845,0.0004196,6.401e-05,0.0,0 STARLINK-3235,1 50200U 21125AW  23333.37331307  .00006401  00000-0  41960-3 0  9993,2 50200  53.2177  11.0599 0002175  63.7370 296.3845 15.08867035111249,6917.798,95.436,541.167,538.158,0.0
50200.0,STARLINK-3235,PAYLOAD,2023-11-30 08:48:21,15.08826718,0.0001936,53.2171,6.5993,108.5995,251.5208,-0.00030829,-5.19e-05,0.0,0 STARLINK-3235,1 50200U 21125AW  23334.36691081 -.00005190  00000-0 -30829-3 0  9999,2 50200  53.2171   6.5993 0001936 108.5995 251.5208 15.08826718110917,6917.921,95.438,541.125,538.447,0.0
50200.0,STARLINK-3235,PAYLOAD,2023-12-01 05:28:22,15.08841184,0.0001836,53.2176,2.7285,112.0791,248.0396,0.00091911,0.0001437,0.0,0 STARLINK-3235,1 50200U 21125AW  23335.22803800  .00014370  00000-0  91911-3 0  9996,2 50200  53.2176   2.7285 0001836 112.0791 248.0396 15.08841184111045,6917.877,95.437,541.012,538.472,0.0
50200.0,STARLINK-3235,PAYLOAD,2023-12-01 11:49:54,15.08863326,0.0001867,53.2173,1.539,96.462,263.6585,0.0015131,0.00023891,0.0,0 STARLINK-3235,1 50200U 21125AW  23335.49299527  .00023891  00000-0  15131-2 0  9997,2 50200  53.2173   1.5390 0001867  96.4620 263.6585 15.08863326111085,6917.809,95.436,540.966,538.383,0.0
50200.0,STARLINK-3235,PAYLOAD,2023-12-02 08:29:53,15.08909754,0.0001991,53.2176,357.6695,91.9619,268.1601,0.0027005,0.00043036,0.0,0 STARLINK-3235,1 50200U 21125AW  23336.35409705  .00043036  00000-0  27005-2 0  9990,2 50200  53.2176 357.6695 0001991  91.9619 268.1601 15.08909754111699,6917.667,95.433,540.909,538.155,0.0
50200.0,STARLINK-3235,PAYLOAD,2023-12-03 06:45:19,15.08812961,0.0002025,53.2182,353.5075,111.5601,248.5607,-0.00042035,-6.967e-05,0.0,0 STARLINK-3235,1 50200U 21125AW  23337.28147819 -.00006967  00000-0 -42035-3 0  9993,2 50200  53.2182 353.5075 0002025 111.5601 248.5607 15.08812961111356,6917.963,95.439,541.229,538.427,0.0
50200.0,STARLINK-3235,PAYLOAD,2023-12-04 09:46:53,15.08834283,0.0002119,53.2177,348.4557,101.7646,258.3584,0.00065083,0.00010083,0.0,0 STARLINK-3235,1 50200U 21125AW  23338.40756933  .00010083  00000-0  65083-3 0  9991,2 50200  53.2177 348.4557 0002119 101.7646 258.3584 15.08834283111525,6917.898,95.438,541.229,538.297,0.0
50200.0,STARLINK-3235,PAYLOAD,2023-12-05 06:26:54,15.08876243,0.0002122,53.2177,344.5914,108.5943,251.5279,0.0011597,0.00018235,0.0,0 STARLINK-3235,1 50200U 21125AW  23339.26868254  .00018235  00000-0  11597-2 0  9993,2 50200  53.2177 344.5914 0002122 108.5943 251.5279 15.08876243111650,6917.77,95.435,541.103,538.167,0.0
50200.0,STARLINK-3235,PAYLOAD,2023-12-06 04:42:17,15.08865041,0.000224,53.2172,340.4245,108.6703,251.4533,0.00062028,9.604e-05,0.0,0 STARLINK-3235,1 50200U 21125AW  23340.19603561  .00009604  00000-0  62028-3 0  9991,2 50200  53.2172 340.4245 0002240 108.6703 251.4533 15.08865041111794,6917.804,95.436,541.218,538.119,0.0
50200.0,STARLINK-3235,PAYLOAD,2023-12-06 09:28:26,15.08854251,0.0001996,53.2176,339.5352,103.5199,256.6016,0.00011533,1.548e-05,0.0,0 STARLINK-3235,1 50200U 21125AW  23340.39475569  .00001548  00000-0  11533-3 0  9992,2 50200  53.2176 339.5352 0001996 103.5199 256.6016 15.08854251111824,6917.837,95.437,541.083,538.321,0.0
50200.0,STARLINK-3235,PAYLOAD,2023-12-07 04:33:04,15.08837134,0.000268,53.2183,335.968,112.2335,247.8941,9.1461e-05,1.167e-05,0.0,0 STARLINK-3235,1 50200U 21125AW  23341.18963953  .00001167  00000-0  91461-4 0  9995,2 50200  53.2183 335.9680 0002680 112.2335 247.8941 15.08837134111949,6917.889,95.438,541.608,537.9,0.0
50200.0,STARLINK-3235,PAYLOAD,2023-12-07 06:08:27,15.08840113,0.0002521,53.2183,335.6693,123.592,236.5313,-1.1187e-05,-4.66e-06,0.0,0 STARLINK-3235,1 50200U 21125AW  23341.25587711 -.00000466  00000-0 -11187-4 0  9997,2 50200  53.2183 335.6693 0002521 123.5920 236.5313 15.08840113112433,6917.88,95.438,541.489,538.001,0.0
50200.0,STARLINK-3235,PAYLOAD,2023-12-08 09:10:01,15.08845604,0.0002052,53.2175,330.6141,104.6314,255.4906,0.00024329,3.587e-05,0.0,0 STARLINK-3235,1 50200U 21125AW  23342.38196091  .00003587  00000-0  24329-3 0  9995,2 50200  53.2175 330.6141 0002052 104.6314 255.4906 15.08845604112127,6917.863,95.437,541.148,538.309,0.0
50200.0,STARLINK-3235,PAYLOAD,2023-12-09 05:50:02,15.08847498,0.0002038,53.2173,326.7463,98.5434,261.579,0.00024861,3.671e-05,0.0,0 STARLINK-3235,1 50200U 21125AW  23343.24307997  .00003671  00000-0  24861-3 0  9995,2 50200  53.2173 326.7463 0002038  98.5434 261.5790 15.08847498112735,6917.857,95.437,541.132,538.313,0.0
50200.0,STARLINK-3235,PAYLOAD,2023-12-09 23:19:16,15.08840249,0.0002142,53.2174,323.4758,101.6722,258.451,3.3661e-05,2.47e-06,0.0,0 STARLINK-3235,1 50200U 21125AW  23343.97172152  .00000247  00000-0  33661-4 0  9993,2 50200  53.2174 323.4758 0002142 101.6722 258.4510 15.08840249112360,6917.88,95.438,541.226,538.263,0.0
50200.0,STARLINK-3235,PAYLOAD,2023-12-11 03:56:13,15.08840049,0.0002173,53.2173,318.1224,113.5121,246.61,-2.1582e-05,-6.32e-06,0.0,0 STARLINK-3235,1 50200U 21125AW  23345.16404193 -.00000632  00000-0 -21582-4 0  9998,2 50200  53.2173 318.1224 0002173 113.5121 246.6100 15.08840049112549,6917.88,95.438,541.248,538.242,0.0
50200.0,STARLINK-3235,PAYLOAD,2023-12-11 05:31:36,15.08839781,0.0001874,53.2169,317.8264,100.7438,259.3765,-3.432e-06,-3.43e-06,0.0,0 STARLINK-3235,1 50200U 21125AW  23345.23028319 -.00000343  00000-0 -34320-5 0  9992,2 50200  53.2169 317.8264 0001874 100.7438 259.3765 15.08839781113034,6917.881,95.438,541.042,538.45,0.0
50200.0,STARLINK-3235,PAYLOAD,2023-12-12 05:22:23,15.08841238,0.0001827,53.2172,313.3674,91.3405,268.7796,0.00014311,1.99e-05,0.0,0 STARLINK-3235,1 50200U 21125AW  23346.22388517  .00001990  00000-0  14311-3 0  9994,2 50200  53.2172 313.3674 0001827  91.3405 268.7796 15.08841238112702,6917.877,95.437,541.006,538.478,0.0
50200.0,STARLINK-3235,PAYLOAD,2023-12-13 05:13:10,15.08845594,0.0001928,53.2177,308.9067,80.5748,279.5462,0.00016698,2.371e-05,0.0,0 STARLINK-3235,1 50200U 21125AW  23347.21748388  .00002371  00000-0  16698-3 0  9994,2 50200  53.2177 308.9067 0001928  80.5748 279.5462 15.08845594113334,6917.863,95.437,541.062,538.395,0.0
50200.0,STARLINK-3235,PAYLOAD,2023-12-14 05:03:57,15.08842251,0.0002093,53.2184,304.4439,74.783,285.3394,7.6551e-05,9.3e-06,0.0,0 STARLINK-3235,1 50200U 21125AW  23348.21108747  .00000930  00000-0  76551-4 0  9998,2 50200  53.2184 304.4439 0002093  74.7830 285.3394 15.08842251113007,6917.874,95.437,541.186,538.291,0.0
50200.0,STARLINK-3235,PAYLOAD,2023-12-15 03:19:21,15.08852828,0.0002332,53.2189,300.279,68.3857,291.7384,0.00014385,2.003e-05,0.0,0 STARLINK-3235,1 50200U 21125AW  23349.13844173  .00002003  00000-0  14385-3 0  9999,2 50200  53.2189 300.2790 0002332  68.3857 291.7384 15.08852828113629,6917.841,95.437,541.319,538.093,0.0
